GLOBALSTAR M080         
1 38041U 11080B   26198.24108413 -.00000079  00000+0  13685-3 0  9997
2 38041  52.0067 287.5186 0000283  79.0400 299.5857 12.62257515672688
GLOBALSTAR M082         
1 38042U 11080C   26198.09795038 -.00000083  00000+0  11451-3 0  9990
2 38042  52.0060 243.4583 0000198  78.9877 298.8883 12.62264344673371
GLOBALSTAR M092         
1 38043U 11080D   26198.30835348 -.00000088  00000+0  86885-4 0  9993
2 38043  52.0105 333.2149 0000759 106.4039 267.4253 12.62267818671851
GLOBALSTAR M090         
1 38044U 11080E   26198.12809628 -.00000079  00000+0  13632-3 0  9995
2 38044  52.0103 237.3317 0000413  89.1139 304.6303 12.62269629673490
GLOBALSTAR M086         
1 38045U 11080F   26198.06607035 -.00000094  00000+0  54639-4 0  9997
2 38045  51.9875 237.4002 0001479 114.4095 261.1789 12.62287855673433
GLOBALSTAR M097         
1 39072U 13005A   26198.25282374 -.00000118  00000+0 -79913-4 0  9993
2 39072  52.0028 151.8123 0000490  42.3785 317.7119 12.62271324620707
GLOBALSTAR M093         
1 39073U 13005B   26198.22606628 -.00000106  00000+0 -11892-4 0  9992
2 39073  52.0093 145.2523 0000704  47.7349 312.3577 12.62266331620659
GLOBALSTAR M094         
1 39074U 13005C   26197.98837083 -.00000092  00000+0  65679-4 0  9991
2 39074  51.9971  60.0636 0001023  65.3700 294.7273 12.62264163622237
GLOBALSTAR M096         
1 39075U 13005D   26198.16026490 -.00000087  00000+0  91513-4 0  9995
2 39075  52.0072 108.3649 0000785  46.0016 314.0916 12.62265725621179
GLOBALSTAR M078         
1 39076U 13005E   26198.29176714 -.00000122  00000+0 -10373-3 0  9990
2 39076  51.9845 191.9336 0000887 344.3933  15.6906 12.62260136619814
GLOBALSTAR M095         
1 39077U 13005F   26198.00170557 -.00000124  00000+0 -11568-3 0  9998
2 39077  52.0053 190.4627 0000502  15.9814 344.1068 12.62264118619631
GLOBALSTAR M087         
1 52888U 22064A   26198.33154550 -.00000089  00000+0  83135-4 0  9998
2 52888  52.0017 330.6804 0000896  86.9366 273.1604 12.62269402194947
