{"fetched_at":"2026-07-17T17:37:48.565Z","source":"https://celestrak.org/NORAD/elements/gp.php?GROUP=globalstar&FORMAT=JSON","constellation":"globalstar","records":[{"OBJECT_NAME":"GLOBALSTAR M080","OBJECT_ID":"2011-080B","EPOCH":"2026-07-17T05:47:09.668832","CLASSIFICATION_TYPE":"U","MEAN_MOTION":12.62257515,"ECCENTRICITY":0.00002832,"INCLINATION":52.0067,"RA_OF_ASC_NODE":287.5186,"ARG_OF_PERICENTER":79.04,"MEAN_ANOMALY":299.5857,"EPHEMERIS_TYPE":0,"NORAD_CAT_ID":38041,"ELEMENT_SET_NO":999,"REV_AT_EPOCH":67268,"BSTAR":0.00013684609,"MEAN_MOTION_DOT":-7.9e-7,"MEAN_MOTION_DDOT":0},{"OBJECT_NAME":"GLOBALSTAR M082","OBJECT_ID":"2011-080C","EPOCH":"2026-07-17T02:21:02.912832","CLASSIFICATION_TYPE":"U","MEAN_MOTION":12.62264344,"ECCENTRICITY":0.00001984,"INCLINATION":52.006,"RA_OF_ASC_NODE":243.4583,"ARG_OF_PERICENTER":78.9877,"MEAN_ANOMALY":298.8883,"EPHEMERIS_TYPE":0,"NORAD_CAT_ID":38042,"ELEMENT_SET_NO":999,"REV_AT_EPOCH":67337,"BSTAR":0.00011450657,"MEAN_MOTION_DOT":-8.3e-7,"MEAN_MOTION_DDOT":0},{"OBJECT_NAME":"GLOBALSTAR M092","OBJECT_ID":"2011-080D","EPOCH":"2026-07-17T07:24:01.740672","CLASSIFICATION_TYPE":"U","MEAN_MOTION":12.62267818,"ECCENTRICITY":0.00007599,"INCLINATION":52.0105,"RA_OF_ASC_NODE":333.2149,"ARG_OF_PERICENTER":106.4039,"MEAN_ANOMALY":267.4253,"EPHEMERIS_TYPE":0,"NORAD_CAT_ID":38043,"ELEMENT_SET_NO":999,"REV_AT_EPOCH":67185,"BSTAR":0.000086884832,"MEAN_MOTION_DOT":-8.8e-7,"MEAN_MOTION_DDOT":0},{"OBJECT_NAME":"GLOBALSTAR M090","OBJECT_ID":"2011-080E","EPOCH":"2026-07-17T03:04:27.518592","CLASSIFICATION_TYPE":"U","MEAN_MOTION":12.62269629,"ECCENTRICITY":0.00004137,"INCLINATION":52.0103,"RA_OF_ASC_NODE":237.3317,"ARG_OF_PERICENTER":89.1139,"MEAN_ANOMALY":304.6303,"EPHEMERIS_TYPE":0,"NORAD_CAT_ID":38044,"ELEMENT_SET_NO":999,"REV_AT_EPOCH":67349,"BSTAR":0.00013632176,"MEAN_MOTION_DOT":-7.9e-7,"MEAN_MOTION_DDOT":0},{"OBJECT_NAME":"GLOBALSTAR M086","OBJECT_ID":"2011-080F","EPOCH":"2026-07-17T01:35:08.478240","CLASSIFICATION_TYPE":"U","MEAN_MOTION":12.62287855,"ECCENTRICITY":0.00014794,"INCLINATION":51.9875,"RA_OF_ASC_NODE":237.4002,"ARG_OF_PERICENTER":114.4095,"MEAN_ANOMALY":261.1789,"EPHEMERIS_TYPE":0,"NORAD_CAT_ID":38045,"ELEMENT_SET_NO":999,"REV_AT_EPOCH":67343,"BSTAR":0.000054638653,"MEAN_MOTION_DOT":-9.4e-7,"MEAN_MOTION_DDOT":0},{"OBJECT_NAME":"GLOBALSTAR M097","OBJECT_ID":"2013-005A","EPOCH":"2026-07-17T06:04:03.971136","CLASSIFICATION_TYPE":"U","MEAN_MOTION":12.62271324,"ECCENTRICITY":0.00004905,"INCLINATION":52.0028,"RA_OF_ASC_NODE":151.8123,"ARG_OF_PERICENTER":42.3785,"MEAN_ANOMALY":317.7119,"EPHEMERIS_TYPE":0,"NORAD_CAT_ID":39072,"ELEMENT_SET_NO":999,"REV_AT_EPOCH":62070,"BSTAR":-0.000079912967,"MEAN_MOTION_DOT":-0.00000118,"MEAN_MOTION_DDOT":0},{"OBJECT_NAME":"GLOBALSTAR M093","OBJECT_ID":"2013-005B","EPOCH":"2026-07-17T05:25:32.126592","CLASSIFICATION_TYPE":"U","MEAN_MOTION":12.62266331,"ECCENTRICITY":0.00007042,"INCLINATION":52.0093,"RA_OF_ASC_NODE":145.2523,"ARG_OF_PERICENTER":47.7349,"MEAN_ANOMALY":312.3577,"EPHEMERIS_TYPE":0,"NORAD_CAT_ID":39073,"ELEMENT_SET_NO":999,"REV_AT_EPOCH":62065,"BSTAR":-0.000011891783,"MEAN_MOTION_DOT":-0.00000106,"MEAN_MOTION_DDOT":0},{"OBJECT_NAME":"GLOBALSTAR M094","OBJECT_ID":"2013-005C","EPOCH":"2026-07-16T23:43:15.239712","CLASSIFICATION_TYPE":"U","MEAN_MOTION":12.62264163,"ECCENTRICITY":0.00010239,"INCLINATION":51.9971,"RA_OF_ASC_NODE":60.0636,"ARG_OF_PERICENTER":65.37,"MEAN_ANOMALY":294.7273,"EPHEMERIS_TYPE":0,"NORAD_CAT_ID":39074,"ELEMENT_SET_NO":999,"REV_AT_EPOCH":62223,"BSTAR":0.000065679093,"MEAN_MOTION_DOT":-9.2e-7,"MEAN_MOTION_DDOT":0},{"OBJECT_NAME":"GLOBALSTAR M096","OBJECT_ID":"2013-005D","EPOCH":"2026-07-17T03:50:46.887360","CLASSIFICATION_TYPE":"U","MEAN_MOTION":12.62265725,"ECCENTRICITY":0.0000785,"INCLINATION":52.0072,"RA_OF_ASC_NODE":108.3649,"ARG_OF_PERICENTER":46.0016,"MEAN_ANOMALY":314.0916,"EPHEMERIS_TYPE":0,"NORAD_CAT_ID":39075,"ELEMENT_SET_NO":999,"REV_AT_EPOCH":62117,"BSTAR":0.000091512848,"MEAN_MOTION_DOT":-8.7e-7,"MEAN_MOTION_DDOT":0},{"OBJECT_NAME":"GLOBALSTAR M078","OBJECT_ID":"2013-005E","EPOCH":"2026-07-17T07:00:08.680896","CLASSIFICATION_TYPE":"U","MEAN_MOTION":12.62260136,"ECCENTRICITY":0.00008871,"INCLINATION":51.9845,"RA_OF_ASC_NODE":191.9336,"ARG_OF_PERICENTER":344.3933,"MEAN_ANOMALY":15.6906,"EPHEMERIS_TYPE":0,"NORAD_CAT_ID":39076,"ELEMENT_SET_NO":999,"REV_AT_EPOCH":61981,"BSTAR":-0.000103733,"MEAN_MOTION_DOT":-0.00000122,"MEAN_MOTION_DDOT":0},{"OBJECT_NAME":"GLOBALSTAR M095","OBJECT_ID":"2013-005F","EPOCH":"2026-07-17T00:02:27.361248","CLASSIFICATION_TYPE":"U","MEAN_MOTION":12.62264118,"ECCENTRICITY":0.0000502,"INCLINATION":52.0053,"RA_OF_ASC_NODE":190.4627,"ARG_OF_PERICENTER":15.9814,"MEAN_ANOMALY":344.1068,"EPHEMERIS_TYPE":0,"NORAD_CAT_ID":39077,"ELEMENT_SET_NO":999,"REV_AT_EPOCH":61963,"BSTAR":-0.00011568438,"MEAN_MOTION_DOT":-0.00000124,"MEAN_MOTION_DDOT":0},{"OBJECT_NAME":"GLOBALSTAR M087","OBJECT_ID":"2022-064A","EPOCH":"2026-07-17T07:57:25.531200","CLASSIFICATION_TYPE":"U","MEAN_MOTION":12.62269402,"ECCENTRICITY":0.00008965,"INCLINATION":52.0017,"RA_OF_ASC_NODE":330.6804,"ARG_OF_PERICENTER":86.9366,"MEAN_ANOMALY":273.1604,"EPHEMERIS_TYPE":0,"NORAD_CAT_ID":52888,"ELEMENT_SET_NO":999,"REV_AT_EPOCH":19494,"BSTAR":0.000083134508,"MEAN_MOTION_DOT":-8.9e-7,"MEAN_MOTION_DDOT":0}]}
